NORAD_CAT_ID,OBJECT_NAME,OBJECT_TYPE,EPOCH,MEAN_MOTION,ECCENTRICITY,INCLINATION,RA_OF_ASC_NODE,ARG_OF_PERICENTER,MEAN_ANOMALY,BSTAR,MEAN_MOTION_DOT,MEAN_MOTION_DDOT,TLE_LINE0,TLE_LINE1,TLE_LINE2,SEMIMAJOR_AXIS,PERIOD,APOGEE,PERIGEE,DECAYED
55955.0,STARLINK-5878,PAYLOAD,2024-01-24 11:34:25,14.98326346,0.0002604,70.0005,59.0715,254.7439,105.3432,-6.5285e-05,-8.72e-06,0.0,0 STARLINK-5878,1 55955U 23037AT  24024.48224021 -.00000872  00000-0 -65285-4 0  9998,2 55955  70.0005  59.0715 0002604 254.7439 105.3432 14.98326346 48350,6950.204,96.107,573.879,570.259,0.0
55955.0,STARLINK-5878,PAYLOAD,2024-01-25 03:35:45,14.98331996,0.0002696,70.0003,57.3878,255.2477,104.8383,-1.9316e-06,-1.16e-06,0.0,0 STARLINK-5878,1 55955U 23037AT  24025.14983473 -.00000116  00000-0 -19316-5 0  9991,2 55955  70.0003  57.3878 0002696 255.2477 104.8383 14.98331996 48792,6950.187,96.107,573.925,570.178,0.0
55955.0,STARLINK-5878,PAYLOAD,2024-01-25 11:36:26,14.983309,0.0002726,70.0002,56.5459,257.8893,102.1961,-1.3572e-05,-2.55e-06,0.0,0 STARLINK-5878,1 55955U 23037AT  24025.48363557 -.00000255  00000-0 -13572-4 0  9994,2 55955  70.0002  56.5459 0002726 257.8893 102.1961 14.98330900 48507,6950.19,96.107,573.95,570.16,0.0
55955.0,STARLINK-5878,PAYLOAD,2024-01-26 03:37:46,14.98329466,0.0002847,70.0,54.8622,258.8896,101.1943,4.2341e-05,4.12e-06,0.0,0 STARLINK-5878,1 55955U 23037AT  24026.15123444  .00000412  00000-0  42341-4 0  9997,2 55955  70.0000  54.8622 0002847 258.8896 101.1943 14.98329466 48948,6950.195,96.107,574.038,570.081,0.0
55955.0,STARLINK-5878,PAYLOAD,2024-01-26 11:38:26,14.98330523,0.0002828,70.0002,54.021,257.3622,102.7221,4.9375e-05,4.96e-06,0.0,0 STARLINK-5878,1 55955U 23037AT  24026.48503351  .00000496  00000-0  49375-4 0  9998,2 55955  70.0002  54.0210 0002828 257.3622 102.7221 14.98330523 48655,6950.191,96.107,574.022,570.091,0.0
55955.0,STARLINK-5878,PAYLOAD,2024-01-27 03:39:47,14.98319591,0.0004382,70.0001,52.3373,293.9732,66.0968,-0.00019109,-2.372e-05,0.0,0 STARLINK-5878,1 55955U 23037AT  24027.15263047 -.00002372  00000-0 -19109-3 0  9996,2 55955  70.0001  52.3373 0004382 293.9732  66.0968 14.98319591 49091,6950.225,96.108,575.136,569.044,0.0
55955.0,STARLINK-5878,PAYLOAD,2024-01-27 11:40:27,14.98317305,0.0002792,70.0002,51.4956,262.5791,97.5051,-0.00022502,-2.776e-05,0.0,0 STARLINK-5878,1 55955U 23037AT  24027.48643151 -.00002776  00000-0 -22502-3 0  9999,2 55955  70.0002  51.4956 0002792 262.5791  97.5051 14.98317305 49148,6950.232,96.108,574.038,570.157,0.0
55955.0,STARLINK-5878,PAYLOAD,2024-01-28 05:17:55,14.98321081,0.000308,69.9999,49.6428,270.0208,90.0598,-0.00019847,-2.46e-05,0.0,0 STARLINK-5878,1 55955U 23037AT  24028.22078669 -.00002460  00000-0 -19847-3 0  9996,2 55955  69.9999  49.6428 0003080 270.0208  90.0598 14.98321081 49253,6950.22,96.108,574.226,569.945,0.0
55955.0,STARLINK-5878,PAYLOAD,2024-01-28 11:42:28,14.98319535,0.0002849,70.0002,48.9694,263.7795,96.3039,-0.00020314,-2.515e-05,0.0,0 STARLINK-5878,1 55955U 23037AT  24028.48782848 -.00002515  00000-0 -20314-3 0  9997,2 55955  70.0002  48.9694 0002849 263.7795  96.3039 14.98319535 48956,6950.225,96.108,574.07,570.11,0.0
55955.0,STARLINK-5878,PAYLOAD,2024-01-29 10:08:21,14.98307464,0.0002936,69.9998,46.6126,268.7058,91.3765,6.7859e-05,7.16e-06,0.0,0 STARLINK-5878,1 55955U 23037AT  24029.42246582  .00000716  00000-0  67859-4 0  9997,2 55955  69.9998  46.6126 0002936 268.7058  91.3765 14.98307464 49439,6950.263,96.108,574.168,570.087,0.0
55955.0,STARLINK-5878,PAYLOAD,2024-01-30 03:45:49,14.98311895,0.000305,69.9996,44.7608,268.8663,91.2146,9.3166e-05,1.018e-05,0.0,0 STARLINK-5878,1 55955U 23037AT  24030.15682799  .00001018  00000-0  93166-4 0  9999,2 55955  69.9996  44.7608 0003050 268.8663  91.2146 14.98311895 49549,6950.249,96.108,574.234,569.994,0.0
55955.0,STARLINK-5878,PAYLOAD,2024-01-30 10:10:22,14.98314515,0.0003005,69.9997,44.0876,268.4719,91.6096,0.0001167,1.299e-05,0.0,0 STARLINK-5878,1 55955U 23037AT  24030.42386863  .00001299  00000-0  11670-3 0  9992,2 55955  69.9997  44.0876 0003005 268.4719  91.6096 14.98314515 49245,6950.241,96.108,574.194,570.017,0.0
55955.0,STARLINK-5878,PAYLOAD,2024-01-31 03:47:51,14.98319266,0.0003013,69.9997,42.2358,267.1857,92.8957,8.1721e-05,8.82e-06,0.0,0 STARLINK-5878,1 55955U 23037AT  24031.15823266  .00000882  00000-0  81721-4 0  9998,2 55955  69.9997  42.2358 0003013 267.1857  92.8957 14.98319266 49694,6950.226,96.108,574.185,569.997,0.0
55955.0,STARLINK-5878,PAYLOAD,2024-01-31 10:12:23,14.98322173,0.0002937,69.9999,41.5628,265.6593,94.423,0.00011139,1.236e-05,0.0,0 STARLINK-5878,1 55955U 23037AT  24031.42527155  .00001236  00000-0  11139-3 0  9995,2 55955  69.9999  41.5628 0002937 265.6593  94.4230 14.98322173 49392,6950.217,96.108,574.123,570.041,0.0
55955.0,STARLINK-5878,PAYLOAD,2024-02-01 03:49:52,14.98325761,0.0002883,70.0001,39.712,264.3713,95.7117,4.5313e-05,4.48e-06,0.0,0 STARLINK-5878,1 55955U 23037AT  24032.15963366  .00000448  00000-0  45313-4 0  9990,2 55955  70.0001  39.7120 0002883 264.3713  95.7117 14.98325761 49849,6950.206,96.107,574.075,570.067,0.0
55955.0,STARLINK-5878,PAYLOAD,2024-02-01 10:14:24,14.98326325,0.0002876,70.0001,39.0385,264.3135,95.7696,4.7784e-05,4.77e-06,0.0,0 STARLINK-5878,1 55955U 23037AT  24032.42667383  .00000477  00000-0  47784-4 0  9996,2 55955  70.0001  39.0385 0002876 264.3135  95.7696 14.98326325 49541,6950.204,96.107,574.068,570.07,0.0
55955.0,STARLINK-5878,PAYLOAD,2024-02-02 03:51:52,14.98334394,0.0002981,69.9998,37.1865,266.3534,93.7284,5.1137e-05,5.17e-06,0.0,0 STARLINK-5878,1 55955U 23037AT  24033.16102819  .00000517  00000-0  51137-4 0  9998,2 55955  69.9998  37.1865 0002981 266.3534  93.7284 14.98334394 49992,6950.179,96.107,574.116,569.972,0.0
55955.0,STARLINK-5878,PAYLOAD,2024-02-02 10:16:24,14.98337049,0.0002916,69.9999,36.5131,265.6236,94.459,8.1407e-05,8.79e-06,0.0,0 STARLINK-5878,1 55955U 23037AT  24033.42806463  .00000879  00000-0  81407-4 0  9997,2 55955  69.9999  36.5131 0002916 265.6236  94.4590 14.98337049 49696,6950.171,96.107,574.063,570.009,0.0
55955.0,STARLINK-5878,PAYLOAD,2024-02-03 03:53:54,14.98325695,0.0002681,70.0004,34.6619,261.1718,98.9137,-2.7323e-05,-4.19e-06,0.0,0 STARLINK-5878,1 55955U 23037AT  24034.16243422 -.00000419  00000-0 -27323-4 0  9998,2 55955  70.0004  34.6619 0002681 261.1718  98.9137 14.98325695 50143,6950.206,96.107,573.935,570.208,0.0
55955.0,STARLINK-5878,PAYLOAD,2024-02-03 10:18:26,14.98325454,0.0002676,70.0005,33.9883,262.8014,97.2841,-2.7746e-05,-4.24e-06,0.0,0 STARLINK-5878,1 55955U 23037AT  24034.42947499 -.00000424  00000-0 -27746-4 0  9997,2 55955  70.0005  33.9883 0002676 262.8014  97.2841 14.98325454 49842,6950.207,96.107,573.932,570.212,0.0
55955.0,STARLINK-5878,PAYLOAD,2024-02-04 02:19:46,14.9833467,0.0002656,70.0005,32.3051,263.4258,96.6599,-3.327e-05,-4.9e-06,0.0,0 STARLINK-5878,1 55955U 23037AT  24035.09706881 -.00000490  00000-0 -33270-4 0  9991,2 55955  70.0005  32.3051 0002656 263.4258  96.6599 14.98334670 50280,6950.178,96.107,573.889,570.197,0.0
55955.0,STARLINK-5878,PAYLOAD,2024-02-04 08:44:18,14.98334016,0.0002666,70.0006,31.6318,263.5196,96.5659,-3.6011e-05,-5.23e-06,0.0,0 STARLINK-5878,1 55955U 23037AT  24035.36410867 -.00000523  00000-0 -36011-4 0  9990,2 55955  70.0006  31.6318 0002666 263.5196  96.5659 14.98334016 49987,6950.18,96.107,573.898,570.193,0.0
55955.0,STARLINK-5878,PAYLOAD,2024-02-04 23:09:31,14.98328698,0.0002792,70.0002,30.1165,267.9955,92.0884,4.6444e-05,4.61e-06,0.0,0 STARLINK-5878,1 55955U 23037AT  24035.96494888  .00000461  00000-0  46444-4 0  9991,2 55955  70.0002  30.1165 0002792 267.9955  92.0884 14.98328698 50070,6950.197,96.107,574.002,570.121,0.0
55955.0,STARLINK-5878,PAYLOAD,2024-02-05 03:57:55,14.98327556,0.0002824,70.0002,29.6115,266.3687,93.7149,2.646e-05,2.23e-06,0.0,0 STARLINK-5878,1 55955U 23037AT  24036.16523010  .00000223  00000-0  26460-4 0  9996,2 55955  70.0002  29.6115 0002824 266.3687  93.7149 14.98327556 50444,6950.2,96.107,574.028,570.103,0.0
55955.0,STARLINK-5878,PAYLOAD,2024-02-05 10:22:28,14.98329437,0.0002842,70.0002,28.9377,268.4977,91.5856,4.4937e-05,4.43e-06,0.0,0 STARLINK-5878,1 55955U 23037AT  24036.43226863  .00000443  00000-0  44937-4 0  9995,2 55955  70.0002  28.9377 0002842 268.4977  91.5856 14.98329437 50149,6950.195,96.107,574.035,570.084,0.0
55955.0,STARLINK-5878,PAYLOAD,2024-02-06 03:59:57,14.98328308,0.0002808,70.0004,27.0857,267.2616,92.8221,-4.286e-05,-6.04e-06,0.0,0 STARLINK-5878,1 55955U 23037AT  24037.16663208 -.00000604  00000-0 -42860-4 0  9998,2 55955  70.0004  27.0857 0002808 267.2616  92.8221 14.98328308 50598,6950.198,96.107,574.015,570.112,0.0
55955.0,STARLINK-5878,PAYLOAD,2024-02-06 08:48:21,14.98330469,0.0002772,70.0007,26.5809,267.2384,92.8457,-1.4141e-05,-2.62e-06,0.0,0 STARLINK-5878,1 55955U 23037AT  24037.36690994 -.00000262  00000-0 -14141-4 0  9993,2 55955  70.0007  26.5809 0002772 267.2384  92.8457 14.98330469 50282,6950.191,96.107,573.983,570.13,0.0
55955.0,STARLINK-5878,PAYLOAD,2024-02-07 04:01:57,14.98330174,0.0002787,70.0007,24.5609,267.1698,92.9142,6.4594e-06,-1.6e-07,0.0,0 STARLINK-5878,1 55955U 23037AT  24038.16802893 -.00000016  00000-0  64594-5 0  9999,2 55955  70.0007  24.5609 0002787 267.1698  92.9142 14.98330174 50747,6950.192,96.107,573.994,570.12,0.0
55955.0,STARLINK-5878,PAYLOAD,2024-02-07 08:50:21,14.98331971,0.0002755,70.0009,24.056,266.8846,93.1998,2.7579e-05,2.36e-06,0.0,0 STARLINK-5878,1 55955U 23037AT  24038.36830706  .00000236  00000-0  27579-4 0  9999,2 55955  70.0009  24.0560 0002755 266.8846  93.1998 14.98331971 50430,6950.187,96.107,573.967,570.137,0.0
55955.0,STARLINK-5878,PAYLOAD,2024-02-07 16:51:02,14.9832896,0.0002751,70.0011,23.214,273.5463,86.5382,-5.4754e-06,-1.58e-06,0.0,0 STARLINK-5878,1 55955U 23037AT  24038.70211016 -.00000158  00000-0 -54754-5 0  9995,2 55955  70.0011  23.2140 0002751 273.5463  86.5382 14.98328960 50486,6950.196,96.107,573.973,570.149,0.0
